NORAD_CAT_ID,OBJECT_NAME,OBJECT_TYPE,EPOCH,MEAN_MOTION,ECCENTRICITY,INCLINATION,RA_OF_ASC_NODE,ARG_OF_PERICENTER,MEAN_ANOMALY,BSTAR,MEAN_MOTION_DOT,MEAN_MOTION_DDOT,TLE_LINE0,TLE_LINE1,TLE_LINE2,SEMIMAJOR_AXIS,PERIOD,APOGEE,PERIGEE,DECAYED
52338.0,STARLINK-3815,PAYLOAD,2022-09-30 18:39:09,15.08846695,0.0001413,53.2181,87.1377,60.7211,299.3923,0.00033073,4.98e-05,0.0,0 STARLINK-3815,1 52338U 22045H   22273.77719068  .00004980  00000-0  33073-3 0  9995,2 52338  53.2181  87.1377 0001413  60.7211 299.3923 15.08846695 26043,6917.86,95.437,540.702,538.747,0.0
52338.0,STARLINK-3815,PAYLOAD,2022-10-01 12:08:23,15.08846245,0.0001530999999999,53.2185,83.8671,60.7685,299.346,0.00027086,4.026e-05,0.0,0 STARLINK-3815,1 52338U 22045H   22274.50583285  .00004026  00000-0  27086-3 0  9995,2 52338  53.2185  83.8671 0001531  60.7685 299.3460 15.08846245 26152,6917.861,95.437,540.785,538.6669999999998,0.0
52338.0,STARLINK-3815,PAYLOAD,2022-10-01 18:29:56,15.08853857,0.0001518,53.2186,82.6775,60.8099,299.3045,0.00046104,7.06e-05,0.0,0 STARLINK-3815,1 52338U 22045H   22274.77079035  .00007060  00000-0  46104-3 0  9990,2 52338  53.2186  82.6775 0001518  60.8099 299.3045 15.08853857 26190,6917.8380000000025,95.437,540.753,538.653,0.0
52338.0,STARLINK-3815,PAYLOAD,2022-10-01 20:05:19,15.08853926,0.000153,53.2187,82.3802,60.746,299.3685,0.00057388,8.861e-05,0.0,0 STARLINK-3815,1 52338U 22045H   22274.83702996  .00008861  00000-0  57388-3 0  9992,2 52338  53.2187  82.3802 0001530  60.7460 299.3685 15.08853926 26203,6917.8380000000025,95.437,540.761,538.644,0.0
52338.0,STARLINK-3815,PAYLOAD,2022-10-02 04:02:14,15.08848621,0.0001516,53.2188,80.8933,63.1213,296.9934,0.00028057,4.181e-05,0.0,0 STARLINK-3815,1 52338U 22045H   22275.16822864  .00004181  00000-0  28057-3 0  9998,2 52338  53.2188  80.8933 0001516  63.1213 296.9934 15.08848621 26250,6917.854,95.437,540.768,538.67,0.0
52338.0,STARLINK-3815,PAYLOAD,2022-10-02 18:20:43,15.08834398,0.0001496999999999,53.2183,78.217,59.4885,300.6255,-3.9663e-05,-9.19e-06,0.0,0 STARLINK-3815,1 52338U 22045H   22275.76439398 -.00000919  00000-0 -39663-4 0  9993,2 52338  53.2183  78.2170 0001497  59.4885 300.6255 15.08834398 26345,6917.898,95.438,540.798,538.727,0.0
52338.0,STARLINK-3815,PAYLOAD,2022-10-02 19:56:06,15.08833836,0.0001485,53.2184,77.9199,63.0517,297.0627,-5.5039e-05,-1.164e-05,0.0,0 STARLINK-3815,1 52338U 22045H   22275.83063404 -.00001164  00000-0 -55039-4 0  9990,2 52338  53.2184  77.9199 0001485  63.0517 297.0627 15.08833836 26352,6917.899,95.438,540.7919999999998,538.737,0.0
52338.0,STARLINK-3815,PAYLOAD,2022-10-03 03:53:02,15.08839716,0.0001579,53.219,76.4332,61.6948,298.4203,1.5117e-05,-4.7e-07,0.0,0 STARLINK-3815,1 52338U 22045H   22276.16183562 -.00000047  00000-0  15117-4 0  9996,2 52338  53.2190  76.4332 0001579  61.6948 298.4203 15.08839716 26402,6917.880999999999,95.438,540.839,538.654,0.0
52338.0,STARLINK-3815,PAYLOAD,2022-10-03 19:46:53,15.08849343,0.0001544,53.2189,73.4594,64.5797,295.5355,0.00020061,2.907e-05,0.0,0 STARLINK-3815,1 52338U 22045H   22276.82423189  .00002907  00000-0  20061-3 0  9990,2 52338  53.2189  73.4594 0001544  64.5797 295.5355 15.08849343 26507,6917.852,95.437,540.785,538.649,0.0
52338.0,STARLINK-3815,PAYLOAD,2022-10-03 22:57:39,15.08851709,0.0001530999999999,53.2188,72.8645,64.1846,295.9304,0.00024045,3.542e-05,0.0,0 STARLINK-3815,1 52338U 22045H   22276.95671077  .00003542  00000-0  24045-3 0  9997,2 52338  53.2188  72.8645 0001531  64.1846 295.9304 15.08851709 26522,6917.845,95.437,540.769,538.65,0.0
52338.0,STARLINK-3815,PAYLOAD,2022-10-04 10:05:21,15.08848374,0.0001093,53.2188,70.7829,59.2522,300.8578,0.00036152,5.472e-05,0.0,0 STARLINK-3815,1 52338U 22045H   22277.42039135  .00005472  00000-0  36152-3 0  9999,2 52338  53.2188  70.7829 0001093  59.2522 300.8578 15.08848374 26592,6917.855,95.437,540.476,538.964,0.0
52338.0,STARLINK-3815,PAYLOAD,2022-10-04 19:37:40,15.08849246,0.0001541999999999,53.2188,68.9995,54.8918,305.2218,0.00029183,4.361e-05,0.0,0 STARLINK-3815,1 52338U 22045H   22277.81783030  .00004361  00000-0  29183-3 0  9994,2 52338  53.2188  68.9995 0001542  54.8918 305.2218 15.08849246 26650,6917.852,95.437,540.784,538.65,0.0
52338.0,STARLINK-3815,PAYLOAD,2022-10-05 09:56:09,15.08837145,0.0001851999999999,53.2176,66.325,53.0193,307.0969,0.00036333,5.499e-05,0.0,0 STARLINK-3815,1 52338U 22045H   22278.41399685  .00005499  00000-0  36333-3 0  9998,2 52338  53.2176  66.3250 0001852  53.0193 307.0969 15.08837145 26741,6917.889,95.438,541.035,538.4730000000002,0.0
52338.0,STARLINK-3815,PAYLOAD,2022-10-05 16:17:41,15.08843375,0.0001385999999999,53.2189,65.1335,52.8939,307.218,7.2839e-05,8.72e-06,0.0,0 STARLINK-3815,1 52338U 22045H   22278.67895054  .00000872  00000-0  72839-4 0  9999,2 52338  53.2189  65.1335 0001386  52.8939 307.2180 15.08843375 26786,6917.87,95.437,540.694,538.776,0.0
52338.0,STARLINK-3815,PAYLOAD,2022-10-06 12:57:41,15.08847244,0.0001593,53.2186,61.2686,53.1939,306.9199,0.00016926,2.407e-05,0.0,0 STARLINK-3815,1 52338U 22045H   22279.54006897  .00002407  00000-0  16926-3 0  9995,2 52338  53.2186  61.2686 0001593  53.1939 306.9199 15.08847244 26913,6917.858,95.437,540.825,538.621,0.0
52338.0,STARLINK-3815,PAYLOAD,2022-10-06 19:19:14,15.08842736,0.0001649,53.2185,60.08,41.9745,318.1374,6.8112e-05,7.96e-06,0.0,0 STARLINK-3815,1 52338U 22045H   22279.80503047  .00000796  00000-0  68112-4 0  9997,2 52338  53.2185  60.0800 0001649  41.9745 318.1374 15.08842736 26954,6917.871999999999,95.437,540.878,538.596,0.0
52338.0,STARLINK-3815,PAYLOAD,2022-10-07 11:13:05,15.08847072,0.0001574,53.2192,57.1059,47.0156,313.0968,0.00017649,2.522e-05,0.0,0 STARLINK-3815,1 52338U 22045H   22280.46742815  .00002522  00000-0  17649-3 0  9996,2 52338  53.2192  57.1059 0001574  47.0156 313.0968 15.08847072 27058,6917.859,95.437,540.813,538.635,0.0
52338.0,STARLINK-3815,PAYLOAD,2022-10-07 19:10:01,15.08848196,0.0001705,53.2185,55.6187,50.4953,309.619,0.00023289,3.421e-05,0.0,0 STARLINK-3815,1 52338U 22045H   22280.79862678  .00003421  00000-0  23289-3 0  9998,2 52338  53.2185  55.6187 0001705  50.4953 309.6190 15.08848196 27106,6917.855,95.437,540.9,538.5409999999998,0.0
52338.0,STARLINK-3815,PAYLOAD,2022-10-08 01:31:33,15.08844738,0.0001676999999999,53.219,54.4297,49.5829,310.5309,9.2975e-05,1.192e-05,0.0,0 STARLINK-3815,1 52338U 22045H   22281.06358746  .00001192  00000-0  92975-4 0  9997,2 52338  53.2190  54.4297 0001677  49.5829 310.5309 15.08844738 27145,6917.866,95.437,540.891,538.571,0.0
52338.0,STARLINK-3815,PAYLOAD,2022-10-08 09:28:30,15.08833529,0.0001816,53.2197,52.9427,52.2625,307.8531,-5.429e-05,-1.152e-05,0.0,0 STARLINK-3815,1 52338U 22045H   22281.39479316 -.00001152  00000-0 -54290-4 0  9996,2 52338  53.2197  52.9427 0001816  52.2625 307.8531 15.08833529 27197,6917.9,95.438,541.021,538.509,0.0
52338.0,STARLINK-3815,PAYLOAD,2022-10-08 12:39:16,15.08836035,0.0001647,53.221,52.3495,57.0455,303.0695,-1.6987000000000002e-05,-5.58e-06,0.0,0 STARLINK-3815,1 52338U 22045H   22281.52727182 -.00000558  00000-0 -16987-4 0  9998,2 52338  53.2210  52.3495 0001647  57.0455 303.0695 15.08836035 27215,6917.893,95.438,540.8969999999998,538.618,0.0
52338.0,STARLINK-3815,PAYLOAD,2022-10-08 19:00:49,15.08827424,0.0001865999999999,53.2201,51.1596,52.9358,307.1805,-7.475300000000001e-05,-1.477e-05,0.0,0 STARLINK-3815,1 52338U 22045H   22281.79223885 -.00001477  00000-0 -74753-4 0  9994,2 52338  53.2201  51.1596 0001866  52.9358 307.1805 15.08827424 27257,6917.919,95.438,541.075,538.493,0.0
52338.0,STARLINK-3815,PAYLOAD,2022-10-09 10:54:40,15.08842598,0.0001794,53.2197,48.1855,45.1503,314.9635,3.3766e-05,2.49e-06,0.0,0 STARLINK-3815,1 52338U 22045H   22282.45463152  .00000249  00000-0  33766-4 0  9994,2 52338  53.2197  48.1855 0001794  45.1503 314.9635 15.08842598 27358,6917.871999999999,95.437,540.979,538.496,0.0
52338.0,STARLINK-3815,PAYLOAD,2022-10-09 12:30:03,15.08844982,0.0001985,53.2195,47.8885,47.7671,312.3489,7.797300000000001e-05,9.53e-06,0.0,0 STARLINK-3815,1 52338U 22045H   22282.52087053  .00000953  00000-0  77973-4 0  9994,2 52338  53.2195  47.8885 0001985  47.7671 312.3489 15.08844982 27360,6917.865,95.437,541.1030000000002,538.357,0.0
52338.0,STARLINK-3815,PAYLOAD,2022-10-09 18:51:35,15.0884818,0.0001982,53.2197,46.6988,47.9702,312.1458,0.00012087,1.636e-05,0.0,0 STARLINK-3815,1 52338U 22045H   22282.78582834  .00001636  00000-0  12087-3 0  9992,2 52338  53.2197  46.6988 0001982  47.9702 312.1458 15.08848180 27400,6917.855,95.437,541.092,538.349,0.0
52338.0,STARLINK-3815,PAYLOAD,2022-10-10 12:20:49,15.0885157,0.0001906999999999,53.2196,43.4279,48.3146,311.8009,0.00029382,4.393e-05,0.0,0 STARLINK-3815,1 52338U 22045H   22283.51446450  .00004393  00000-0  29382-3 0  9996,2 52338  53.2196  43.4279 0001907  48.3146 311.8009 15.08851570 27518,6917.845,95.437,541.029,538.391,0.0
52338.0,STARLINK-3815,PAYLOAD,2022-10-10 20:17:45,15.0884989,0.0002214,53.2198,41.941,44.2568,315.8601,0.00017244,2.458e-05,0.0,0 STARLINK-3815,1 52338U 22045H   22283.84566422  .00002458  00000-0  17244-3 0  9998,2 52338  53.2198  41.9410 0002214  44.2568 315.8601 15.08849890 27564,6917.85,95.437,541.247,538.184,0.0
52338.0,STARLINK-3815,PAYLOAD,2022-10-11 12:11:37,15.08841275,0.0001878,53.2193,38.9666,50.5094,309.6064,-0.00012578,-2.289e-05,0.0,0 STARLINK-3815,1 52338U 22045H   22284.50806733 -.00002289  00000-0 -12578-3 0  9993,2 52338  53.2193  38.9666 0001878  50.5094 309.6064 15.08841275 27661,6917.876,95.437,541.0409999999998,538.442,0.0
52338.0,STARLINK-3815,PAYLOAD,2022-10-11 15:22:23,15.08828526,0.000198,53.2199,38.3736,49.7448,310.3717,-0.00026786,-4.547e-05,0.0,0 STARLINK-3815,1 52338U 22045H   22284.64055498 -.00004547  00000-0 -26786-3 0  9997,2 52338  53.2199  38.3736 0001980  49.7448 310.3717 15.08828526 27686,6917.915,95.438,541.15,538.411,0.0
